{"fetched_at":"2026-04-08T17:04:03Z","count":12288,"tles":[{"name":"STARLINK-36294","line1":"1 68531U 26068Z   26097.55334482  .00555230  13465-3  15207-2 0  9992","line2":"2 68531  53.1606   4.6107 0006187 190.5457 169.5443 15.93469502  1239","category":"Starlink"}]}