{
  "norad_id": 68531,
  "name": "STARLINK-36294",
  "history": [
    {
      "epoch": "2026-04-07T13:16:48.992448Z",
      "apogee_km": 296.70954525853176,
      "perigee_km": 288.4551971086303,
      "latitude_deg": 5.1172322706397456e-05,
      "longitude_deg": -30.42198627541701,
      "height_km": 297.56531081985287,
      "semi_major_axis_km": 6670.719371183581,
      "eccentricity": 0.0006187,
      "inclination_deg": 53.1606,
      "raan_deg": 4.6107,
      "arg_perigee_deg": 190.5457,
      "mean_anomaly_deg": 169.5443,
      "mean_motion_rev_day": 15.93469502
    }
  ]
}